0 CZ-4 DEB
1 36304U 99057SV  13275.53131480  .00001932  00000-0  50003-3 0  2448
2 36304 098.6981 175.0868 0070729 229.7770 129.6476 14.49619751499816
0 CZ-4 DEB
1 36304U 99057SV  13276.49766851  .00008311  00000-0  20947-2 0  2452
2 36304 098.6977 176.0897 0071532 226.8243 132.7448 14.49624541499952
0 CZ-4 DEB
1 36304U 99057SV  13278.49934908  .00001761  00000-0  45645-3 0  2459
2 36304 098.7025 178.1346 0071651 222.3615 137.2195 14.49628791500240
0 CZ-4 DEB
1 36304U 99057SV  13283.95217652  .00001794  00000-0  46376-3 0  2465
2 36304 098.6939 183.7418 0073068 208.7877 151.0258 14.49650690501032
0 CZ-4 DEB
1 36304U 99057SV  13287.54132038  .00001909  00000-0  49096-3 0  2479
2 36304 098.6869 187.3991 0076344 200.7740 159.3462 14.49670803501554
